FLOCK 4S-4              
1 47491U 21006CG  22306.14765056  .00009900  00000+0  47796-3 0  9994
2 47491  97.4202   2.1794 0009868 150.2428 209.9370 15.18819807 98147
FLOCK 4S-17             
1 47492U 21006CH  22307.13492803  .00009006  00000+0  43488-3 0  9993
2 47492  97.4333   4.2029 0010079 149.1138 211.0692 15.18839032 98297
FLOCK 4S-3              
1 47494U 21006CK  22307.14806029  .00029579  00000+0  15077-2 0  9994
2 47494  97.4217   2.6224 0010363 149.5373 210.6464 15.16667951 98255
FLOCK 4S-27             
1 47495U 21006CL  22307.13039506  .00016050  00000+0  77249-3 0  9992
2 47495  97.4204   3.2187 0010441 148.5925 211.5935 15.18804160 98290
FLOCK 4S-18             
1 47496U 21006CM  22306.40429979  .00007277  00000+0  35283-3 0  9992
2 47496  97.4313   3.3877 0010095 151.5085 208.6703 15.18767611 98182
FLOCK 4S-26             
1 47497U 21006CN  22306.42852990  .00019171  00000+0  81632-3 0  9993
2 47497  97.4196   3.5268 0008870 144.5123 215.6705 15.22987858 98251
FLOCK 4S-2              
1 47498U 21006CP  22307.12119166  .00035426  00000+0  16778-2 0  9992
2 47498  97.4217   3.2857 0009661 148.3826 211.7991 15.19199567 98294
FLOCK 4S-40             
1 47499U 21006CQ  22306.41140534  .00013995  00000+0  67671-3 0  9993
2 47499  97.4322   3.3727 0010666 152.5265 207.6535 15.18670274 98184
FLOCK 4S-19             
1 47500U 21006CR  22307.11944056  .00024974  00000+0  12008-2 0  9997
2 47500  97.4309   4.0924 0010673 147.4931 212.6963 15.18742750 98292
FLOCK 4S-28             
1 47514U 21006DE  22307.40468979  .00008079  00000+0  39130-3 0  9993
2 47514  97.4205   3.2735 0008008 154.4472 205.7160 15.18785281 99288
FLOCK 4S-5              
1 47515U 21006DF  22307.40269834  .00012612  00000+0  60772-3 0  9997
2 47515  97.4196   3.2195 0008448 154.6640 205.5010 15.18834347 98329
FLOCK 4S-16             
1 47516U 21006DG  22306.55806683  .00008642  00000+0  41855-3 0  9991
2 47516  97.4319   3.3750 0008190 157.2462 202.9137 15.18761850 99151
FLOCK 4S-6              
1 47518U 21006DJ  22306.42822849  .00021115  00000+0  10132-2 0  9994
2 47518  97.4215   2.3379 0007971 160.6486 199.5053 15.18870737 99146
FLOCK 4S-29             
1 47520U 21006DL  22307.41008118  .00008436  00000+0  40877-3 0  9993
2 47520  97.4219   3.3677 0007850 155.6418 204.5188 15.18755388 98329
FLOCK 4S-15             
1 47521U 21006DM  22307.15436751  .00029401  00000+0  15004-2 0  9991
2 47521  97.4337   3.4824 0008313 161.6106 198.5429 15.16643568 99226
FLOCK 4S-37             
1 47522U 21006DN  22306.43179350  .00008157  00000+0  39485-3 0  9996
2 47522  97.4306   3.1214 0007627 159.7844 200.3694 15.18803780 99140
FLOCK 4S-10             
1 47523U 21006DP  22306.46935821  .00008684  00000+0  42029-3 0  9996
2 47523  97.4242   2.5218 0007625 164.6395 195.5073 15.18789610 98174
FLOCK 4S-7              
1 47527U 21006DT  22307.16078174  .00024966  00000+0  11984-2 0  9993
2 47527  97.4216   3.0430 0007757 157.5766 202.5809 15.18824765 99246
FLOCK 4S-14             
1 47528U 21006DU  22306.44159405  .00020896  00000+0  10036-2 0  9996
2 47528  97.4311   3.1331 0007698 161.2864 198.8655 15.18843648 99134
FLOCK 4S-36             
1 47530U 21006DW  22307.16764107  .00022407  00000+0  10772-2 0  9997
2 47530  97.4298   3.7624 0007441 156.8830 203.2740 15.18797042 99245
FLOCK 4S-24             
1 47539U 21006DZ  22307.10503987  .00017645  00000+0  84793-3 0  9990
2 47539  97.4251   3.5511 0011282 145.2034 214.9940 15.18828879 98290
FLOCK 4S-20             
1 47540U 21006EA  22307.10514395  .00024972  00000+0  11984-2 0  9999
2 47540  97.4306   4.0147 0010349 145.6160 214.5746 15.18812621 97366
FLOCK 4S-25             
1 47542U 21006EC  22306.38709478  .00022826  00000+0  10989-2 0  9998
2 47542  97.4221   2.6547 0010643 150.6208 209.5627 15.18717840 97255
FLOCK 4S-1              
1 47543U 21006ED  22307.11068514  .00026831  00000+0  12870-2 0  9991
2 47543  97.4228   3.3588 0010175 143.7729 216.4196 15.18814578 97363
FLOCK 4S-30             
1 47544U 21006EE  22307.15658382  .00022800  00000+0  10924-2 0  9994
2 47544  97.4221   3.1475 0007522 155.0184 205.1416 15.18909475 99243
FLOCK 4S-23             
1 47545U 21006EF  22307.15223463  .00009465  00000+0  45703-3 0  9999
2 47545  97.4260   3.7302 0010950 147.2689 212.9226 15.18818216 99274
FLOCK 4S-42             
1 47612U 21006EQ  22306.42207801  .00007946  00000+0  38459-3 0  9993
2 47612  97.4280   3.0854 0010446 160.4551 199.7086 15.18796788 98185
FLOCK 4S-48             
1 47617U 21006EJ  22306.39997069  .00021068  00000+0  10104-2 0  9993
2 47617  97.4270   3.1670 0011597 142.1303 218.0749 15.18858234 99161
FLOCK 4S-46             
1 47684U 21006EK  22307.13763246  .00025912  00000+0  12377-2 0  9994
2 47684  97.4271   3.8350 0007246 167.0010 193.1413 15.18991665 98307
FLOCK 4S-47             
1 47685U 21006EL  22307.13378918  .00008747  00000+0  42245-3 0  9998
2 47685  97.4246   3.2640 0006737 160.9918 199.1569 15.18867903 98270
FLOCK 4S-44             
1 47686U 21006EM  22307.12241771  .00033451  00000+0  15979-2 0  9997
2 47686  97.4289   3.9013 0011380 155.6378 204.5397 15.18899471 98297
FLOCK 4S-43             
1 47687U 21006EN  22306.12021540  .00022275  00000+0  10733-2 0  9992
2 47687  97.4259   2.4357 0006751 150.9698 209.1913 15.18723353 99098
FLOCK 4S-45             
1 47688U 21006EP  22307.38296779  .00022821  00000+0  10964-2 0  9993
2 47688  97.4274   3.6153 0010782 139.8297 220.3737 15.18787768 99272
FLOCK 4S-41             
1 47698U 21006ER  22306.42089082  .00007794  00000+0  37806-3 0  9992
2 47698  97.4328   3.3004 0009990 152.6923 207.4838 15.18728346 98176
FLOCK 4X-8              
1 50992U 22002J   22307.42670194  .00023952  00000+0  11845-2 0  9999
2 50992  97.4731  12.6797 0009907 315.7906  44.2535 15.17779393 44481
FLOCK 4X-44             
1 50994U 22002L   22306.44425491  .00021041  00000+0  10414-2 0  9998
2 50994  97.4755  11.7778 0010067 318.5879  41.4591 15.17776706 44337
FLOCK 4X-2              
1 50996U 22002N   22307.16789860  .00024906  00000+0  12325-2 0  9999
2 50996  97.4744  12.4600 0009851 316.7329  43.3130 15.17748301 44440
FLOCK 4X-20             
1 50997U 22002P   22307.16459083  .00020274  00000+0  10038-2 0  9994
2 50997  97.4740  12.4555 0009769 317.9036  42.1446 15.17774547 44440
FLOCK 4X-30             
1 51000U 22002S   22306.17655123  .00014745  00000+0  73486-3 0  9996
2 51000  97.4690  11.2710 0009739 311.8673  48.1729 15.17614199 44296
FLOCK 4X-22             
1 51003U 22002V   22307.16129565  .00022897  00000+0  11333-2 0  9994
2 51003  97.4724  12.4002 0010035 319.4720  40.5765 15.17756647 44440
FLOCK 4X-5              
1 51004U 22002W   22307.42327716  .00026192  00000+0  12948-2 0  9997
2 51004  97.4699  12.5566 0010109 308.7291  51.3038 15.17770735 44485
FLOCK 4X-41             
1 51005U 22002X   22307.42173077  .00025253  00000+0  12485-2 0  9990
2 51005  97.4681  12.4920 0009635 304.5194  55.5129 15.17778683 44485
FLOCK 4X-3              
1 51006U 22002Y   22306.43155216  .00016362  00000+0  81217-3 0  9997
2 51006  97.4740  11.7449 0010508 316.9545  43.0866 15.17725430 44334
FLOCK 4X-18             
1 51007U 22002Z   22307.15479739  .00023738  00000+0  11744-2 0  9999
2 51007  97.4702  12.3144 0010461 309.3017  50.7289 15.17760708 44443
FLOCK 4X-37             
1 51009U 22002AB  22307.15374373  .00023776  00000+0  11759-2 0  9997
2 51009  97.4747  12.4980 0010744 313.4597  46.5742 15.17770285 44444
FLOCK 4X-15             
1 51010U 22002AC  22307.41128387  .00026716  00000+0  13204-2 0  9994
2 51010  97.4750  12.7819 0010863 310.1370  49.8911 15.17767947 44488
FLOCK 4X-29             
1 51011U 22002AD  22307.15165025  .00023865  00000+0  11800-2 0  9998
2 51011  97.4698  12.2954 0010414 307.8752  52.1539 15.17781513 44448
FLOCK 4X-27             
1 51012U 22002AE  22307.15054450  .00024961  00000+0  12347-2 0  9993
2 51012  97.4733  12.4517 0011009 316.8884  43.1487 15.17751657 44441
FLOCK 4X-12             
1 51015U 22002AH  22307.07866561  .00021454  00000+0  10614-2 0  9990
2 51015  97.4736  12.4021 0011007 309.6638  50.3624 15.17778124 44432
FLOCK 4X-25             
1 51016U 22002AJ  22307.14879444  .00024229  00000+0  11983-2 0  9996
2 51016  97.4720  12.4019 0010748 318.2101  41.8311 15.17765207 44442
FLOCK 4X-1              
1 51017U 22002AK  22307.14222680  .00014685  00000+0  72821-3 0  9995
2 51017  97.4702  12.3344 0010902 309.0628  50.9635 15.17780420 44441
FLOCK 4X-42             
1 51018U 22002AL  22307.14525962  .00013885  00000+0  68998-3 0  9996
2 51018  97.4688  12.2739 0009720 303.9676  56.1615 15.17731156 44442
FLOCK 4X-16             
1 51020U 22002AN  22307.40392109  .00009817  00000+0  48994-3 0  9997
2 51020  97.4692  12.5501 0010733 303.7784  56.2426 15.17657973 44483
FLOCK 4X-38             
1 51023U 22002AR  22306.61229012  .00023343  00000+0  11559-2 0  9990
2 51023  97.4741  11.9713 0011158 313.7246  46.3063 15.17726286 44363
FLOCK 4X-32             
1 51024U 22002AS  22307.13794194  .00011228  00000+0  55791-3 0  9993
2 51024  97.4740  12.5103 0011932 309.8981  50.0960 15.17765460 44449
FLOCK 4X-26             
1 51026U 22002AU  22306.40927740  .00019085  00000+0  94466-3 0  9990
2 51026  97.4703  11.6353 0010835 312.6217  47.4103 15.17787275 44337
FLOCK 4X-43             
1 51027U 22002AV  22307.13609253  .00025730  00000+0  12728-2 0  9992
2 51027  97.4700  12.3325 0010763 307.2086  52.8165 15.17745295 44442
FLOCK 4X-13             
1 51028U 22002AW  22307.13301806  .00021923  00000+0  10837-2 0  9995
2 51028  97.4704  12.3316 0010936 305.3207  54.7004 15.17802206 44442
FLOCK 4X-39             
1 51029U 22002AX  22307.19251690  .00010083  00000+0  50236-3 0  9990
2 51029  97.4702  12.4076 0010601 303.4458  56.5761 15.17711815 44457
FLOCK 4X-17             
1 51035U 22002BD  22306.47047413  .00020707  00000+0  10279-2 0  9999
2 51035  97.4733  11.6779 0007177 321.7528  38.3196 15.17698401 44336
